start=new Date('2022-05-16T00:00:00.000Z').valueOf();
sats=[{"EPHEMERIS_TYPE":"0","MEAN_ELEMENT_THEORY":"SGP4","NORAD_CAT_ID":"46754","APOAPSIS":"548.520","GP_ID":"203649065","TLE_LINE2":"2 46754  53.0558  98.7707 0001897  58.7234 301.3941 15.06402524 86594","MEAN_ANOMALY":"301.3941","REV_AT_EPOCH":"8659","TIME_SYSTEM":"UTC","LAUNCH_DATE":"2020-10-24","OBJECT_NAME":"STARLINK-1923","FILE":"3447521","TLE_LINE1":"1 46754U 20074R   22135.85639306  .00001436  00000-0  11525-3 0  9993","PERIOD":"95.592","EPOCH":"2022-05-15T20:33:12.360384","ARG_OF_PERICENTER":"58.7234","RA_OF_ASC_NODE":"98.7707","SITE":"AFETR","COUNTRY_CODE":"US","REF_FRAME":"TEME","CENTER_NAME":"EARTH","CLASSIFICATION_TYPE":"U","BSTAR":"0.00011525000000","ELEMENT_SET_NO":"999","OBJECT_ID":"2020-074R","MEAN_MOTION_DDOT":"0.0000000000000","ECCENTRICITY":"0.00018970","SEMIMAJOR_AXIS":"6925.341","INCLINATION":"53.0558","PERIAPSIS":"545.892","OBJECT_TYPE":"PAYLOAD","MEAN_MOTION_DOT":"0.00001436","DECAY_DATE":null,"RCS_SIZE":"LARGE","MEAN_MOTION":"15.06402524"},{"DECAY_DATE":null,"RCS_SIZE":"LARGE","MEAN_MOTION":"15.06396255","ECCENTRICITY":"0.00025140","OBJECT_ID":"2020-074S","MEAN_MOTION_DDOT":"0.0000000000000","INCLINATION":"53.0547","SEMIMAJOR_AXIS":"6925.360","OBJECT_TYPE":"PAYLOAD","MEAN_MOTION_DOT":"0.00000014","PERIAPSIS":"545.484","COUNTRY_CODE":"US","REF_FRAME":"TEME","ELEMENT_SET_NO":"999","BSTAR":"0.00001987500000","CENTER_NAME":"EARTH","CLASSIFICATION_TYPE":"U","EPOCH":"2022-05-15T07:56:12.123168","ARG_OF_PERICENTER":"48.9223","RA_OF_ASC_NODE":"106.1303","SITE":"AFETR","LAUNCH_DATE":"2020-10-24","TIME_SYSTEM":"UTC","TLE_LINE1":"1 46755U 20074S   22135.33069587  .00000014  00000-0  19875-4 0  9993","FILE":"3447100","OBJECT_NAME":"STARLINK-1924","PERIOD":"95.592","MEAN_ANOMALY":"311.1983","REV_AT_EPOCH":"8644","APOAPSIS":"548.966","TLE_LINE2":"2 46755  53.0547 106.1303 0002514  48.9223 311.1983 15.06396255 86447","GP_ID":"203614424","EPHEMERIS_TYPE":"0","NORAD_CAT_ID":"46755","MEAN_ELEMENT_THEORY":"SGP4"},{"FILE":"3447100","OBJECT_NAME":"STARLINK-1925","TLE_LINE1":"1 46756U 20074T   22135.32237373  .00000866  00000-0  77051-4 0  9998","PERIOD":"95.592","TIME_SYSTEM":"UTC","LAUNCH_DATE":"2020-10-24","REV_AT_EPOCH":"8644","MEAN_ANOMALY":"318.5584","GP_ID":"203614175","TLE_LINE2":"2 46756  53.0531 106.1819 0002931  41.5628 318.5584 15.06404663 86445","APOAPSIS":"549.229","NORAD_CAT_ID":"46756","MEAN_ELEMENT_THEORY":"SGP4","EPHEMERIS_TYPE":"0","MEAN_MOTION":"15.06404663","RCS_SIZE":"LARGE","DECAY_DATE":null,"OBJECT_TYPE":"PAYLOAD","MEAN_MOTION_DOT":"0.00000866","PERIAPSIS":"545.169","OBJECT_ID":"2020-074T","MEAN_MOTION_DDOT":"0.0000000000000","ECCENTRICITY":"0.00029310","INCLINATION":"53.0531","SEMIMAJOR_AXIS":"6925.334","COUNTRY_CODE":"US","REF_FRAME":"TEME","CENTER_NAME":"EARTH","CLASSIFICATION_TYPE":"U","BSTAR":"0.00007705100000","ELEMENT_SET_NO":"999","ARG_OF_PERICENTER":"41.5628","RA_OF_ASC_NODE":"106.1819","SITE":"AFETR","EPOCH":"2022-05-15T07:44:13.090272"},{"MEAN_MOTION":"15.06394219","RCS_SIZE":"LARGE","DECAY_DATE":null,"MEAN_MOTION_DOT":"0.00000702","OBJECT_TYPE":"PAYLOAD","PERIAPSIS":"545.654","INCLINATION":"53.0543","SEMIMAJOR_AXIS":"6925.366","OBJECT_ID":"2020-074U","MEAN_MOTION_DDOT":"0.0000000000000","ECCENTRICITY":"0.00022770","CLASSIFICATION_TYPE":"U","CENTER_NAME":"EARTH","BSTAR":"0.00006601900000","ELEMENT_SET_NO":"999","COUNTRY_CODE":"US","REF_FRAME":"TEME","RA_OF_ASC_NODE":"103.3697","SITE":"AFETR","ARG_OF_PERICENTER":"46.6007","EPOCH":"2022-05-15T22:46:32.602080","PERIOD":"95.593","FILE":"3447521","OBJECT_NAME":"STARLINK-1926","TLE_LINE1":"1 46757U 20074U   22135.94898845  .00000702  00000-0  66019-4 0  9995","TIME_SYSTEM":"UTC","LAUNCH_DATE":"2020-10-24","REV_AT_EPOCH":"8653","MEAN_ANOMALY":"313.5171","GP_ID":"203648315","TLE_LINE2":"2 46757  53.0543 103.3697 0002277  46.6007 313.5171 15.06394219 86534","APOAPSIS":"548.808","NORAD_CAT_ID":"46757","MEAN_ELEMENT_THEORY":"SGP4","EPHEMERIS_TYPE":"0"},{"EPHEMERIS_TYPE":"0","NORAD_CAT_ID":"46758","MEAN_ELEMENT_THEORY":"SGP4","APOAPSIS":"549.175","GP_ID":"203648565","TLE_LINE2":"2 46758  53.0536 104.7268 0002862  43.9473 316.1743 15.06406607 86497","MEAN_ANOMALY":"316.1743","REV_AT_EPOCH":"8649","TIME_SYSTEM":"UTC","LAUNCH_DATE":"2020-10-24","PERIOD":"95.592","FILE":"3447521","OBJECT_NAME":"STARLINK-1928","TLE_LINE1":"1 46758U 20074V   22135.64399500  .00000908  00000-0  79865-4 0  9998","EPOCH":"2022-05-15T15:27:21.168000","SITE":"AFETR","RA_OF_ASC_NODE":"104.7268","ARG_OF_PERICENTER":"43.9473","BSTAR":"0.00007986500000","CLASSIFICATION_TYPE":"U","CENTER_NAME":"EARTH","ELEMENT_SET_NO":"999","REF_FRAME":"TEME","COUNTRY_CODE":"US","SEMIMAJOR_AXIS":"6925.328","INCLINATION":"53.0536","MEAN_MOTION_DDOT":"0.0000000000000","OBJECT_ID":"2020-074V","ECCENTRICITY":"0.00028620","OBJECT_TYPE":"PAYLOAD","PERIAPSIS":"545.211","MEAN_MOTION_DOT":"0.00000908","DECAY_DATE":null,"MEAN_MOTION":"15.06406607","RCS_SIZE":"LARGE"},{"INCLINATION":"53.0545","SEMIMAJOR_AXIS":"6925.373","ECCENTRICITY":"0.00021250","OBJECT_ID":"2020-074W","MEAN_MOTION_DDOT":"0.0000000000000","OBJECT_TYPE":"PAYLOAD","MEAN_MOTION_DOT":"-0.00000549","PERIAPSIS":"545.766","DECAY_DATE":null,"MEAN_MOTION":"15.06392037","RCS_SIZE":"LARGE","EPOCH":"2022-05-15T15:20:44.090880","SITE":"AFETR","RA_OF_ASC_NODE":"114.7544","ARG_OF_PERICENTER":"38.2675","ELEMENT_SET_NO":"999","BSTAR":"-0.00001792900000","CENTER_NAME":"EARTH","CLASSIFICATION_TYPE":"U","REF_FRAME":"TEME","COUNTRY_CODE":"US","MEAN_ANOMALY":"321.8464","REV_AT_EPOCH":"8634","LAUNCH_DATE":"2020-10-24","TIME_SYSTEM":"UTC","PERIOD":"95.593","TLE_LINE1":"1 46759U 20074W   22135.63939920 -.00000549  00000-0 -17929-4 0  9990","OBJECT_NAME":"STARLINK-1833","FILE":"3447521","EPHEMERIS_TYPE":"0","NORAD_CAT_ID":"46759","MEAN_ELEMENT_THEORY":"SGP4","APOAPSIS":"548.710","TLE_LINE2":"2 46759  53.0545 114.7544 0002125  38.2675 321.8464 15.06392037 86347","GP_ID":"203649815"},{"APOAPSIS":"548.706","GP_ID":"203649560","TLE_LINE2":"2 46760  53.0555 114.7031 0002112  43.7547 316.3609 15.06390155 86356","EPHEMERIS_TYPE":"0","MEAN_ELEMENT_THEORY":"SGP4","NORAD_CAT_ID":"46760","TIME_SYSTEM":"UTC","LAUNCH_DATE":"2020-10-24","OBJECT_NAME":"STARLINK-1896","FILE":"3447521","TLE_LINE1":"1 46760U 20074X   22135.65045806 -.00000536  00000-0 -17093-4 0  9993","PERIOD":"95.593","MEAN_ANOMALY":"316.3609","REV_AT_EPOCH":"8635","COUNTRY_CODE":"US","REF_FRAME":"TEME","CLASSIFICATION_TYPE":"U","CENTER_NAME":"EARTH","BSTAR":"-0.00001709300000","ELEMENT_SET_NO":"999","EPOCH":"2022-05-15T15:36:39.576384","ARG_OF_PERICENTER":"43.7547","SITE":"AFETR","RA_OF_ASC_NODE":"114.7031","DECAY_DATE":null,"MEAN_MOTION":"15.06390155","RCS_SIZE":"LARGE","OBJECT_ID":"2020-074X","MEAN_MOTION_DDOT":"0.0000000000000","ECCENTRICITY":"0.00021120","INCLINATION":"53.0555","SEMIMAJOR_AXIS":"6925.379","MEAN_MOTION_DOT":"-0.00000536","OBJECT_TYPE":"PAYLOAD","PERIAPSIS":"545.781"},{"REF_FRAME":"TEME","COUNTRY_CODE":"US","CLASSIFICATION_TYPE":"U","CENTER_NAME":"EARTH","BSTAR":"0.00052909000000","ELEMENT_SET_NO":"999","EPOCH":"2022-05-15T04:19:17.170176","ARG_OF_PERICENTER":"20.0670","RA_OF_ASC_NODE":"87.0222","SITE":"AFETR","DECAY_DATE":null,"MEAN_MOTION":"15.42165698","RCS_SIZE":"LARGE","MEAN_MOTION_DDOT":"0.0000000000000","OBJECT_ID":"2020-074AA","ECCENTRICITY":"0.00042740","SEMIMAJOR_AXIS":"6817.856","INCLINATION":"53.0557","OBJECT_TYPE":"PAYLOAD","MEAN_MOTION_DOT":"0.00022690","PERIAPSIS":"436.807","APOAPSIS":"442.635","GP_ID":"203612925","TLE_LINE2":"2 46763  53.0557  87.0222 0004274  20.0670 340.0502 15.42165698 86708","EPHEMERIS_TYPE":"0","NORAD_CAT_ID":"46763","MEAN_ELEMENT_THEORY":"SGP4","TIME_SYSTEM":"UTC","LAUNCH_DATE":"2020-10-24","FILE":"3447100","OBJECT_NAME":"STARLINK-1902","TLE_LINE1":"1 46763U 20074AA  22135.18005984  .00022690  00000-0  52909-3 0  9994","PERIOD":"93.375","MEAN_ANOMALY":"340.0502","REV_AT_EPOCH":"8670"},{"EPHEMERIS_TYPE":"0","MEAN_ELEMENT_THEORY":"SGP4","NORAD_CAT_ID":"46764","APOAPSIS":"548.893","GP_ID":"203649066","TLE_LINE2":"2 46764  53.0563 114.7383 0002426  45.1545 314.9641 15.06400060 86358","MEAN_ANOMALY":"314.9641","REV_AT_EPOCH":"8635","TIME_SYSTEM":"UTC","LAUNCH_DATE":"2020-10-24","FILE":"3447521","OBJECT_NAME":"STARLINK-1903","TLE_LINE1":"1 46764U 20074AB  22135.64307699  .00001334  00000-0  10847-3 0  9991","PERIOD":"95.592","EPOCH":"2022-05-15T15:26:01.851936","ARG_OF_PERICENTER":"45.1545","RA_OF_ASC_NODE":"114.7383","SITE":"AFETR","COUNTRY_CODE":"US","REF_FRAME":"TEME","CLASSIFICATION_TYPE":"U","CENTER_NAME":"EARTH","BSTAR":"0.00010847000000","ELEMENT_SET_NO":"999","OBJECT_ID":"2020-074AB","MEAN_MOTION_DDOT":"0.0000000000000","ECCENTRICITY":"0.00024260","SEMIMAJOR_AXIS":"6925.348","INCLINATION":"53.0563","MEAN_MOTION_DOT":"0.00001334","OBJECT_TYPE":"PAYLOAD","PERIAPSIS":"545.533","DECAY_DATE":null,"MEAN_MOTION":"15.06400060","RCS_SIZE":"LARGE"},{"CLASSIFICATION_TYPE":"U","CENTER_NAME":"EARTH","BSTAR":"0.00005117400000","ELEMENT_SET_NO":"999","REF_FRAME":"TEME","COUNTRY_CODE":"US","EPOCH":"2022-05-15T15:10:06.143520","SITE":"AFETR","RA_OF_ASC_NODE":"114.7894","ARG_OF_PERICENTER":"50.1514","DECAY_DATE":null,"MEAN_MOTION":"15.06401988","RCS_SIZE":"LARGE","INCLINATION":"53.0534","SEMIMAJOR_AXIS":"6925.342","MEAN_MOTION_DDOT":"0.0000000000000","OBJECT_ID":"2020-074AC","ECCENTRICITY":"0.00020230","PERIAPSIS":"545.806","OBJECT_TYPE":"PAYLOAD","MEAN_MOTION_DOT":"0.00000481","APOAPSIS":"548.608","GP_ID":"203649315","TLE_LINE2":"2 46765  53.0534 114.7894 0002023  50.1514 309.9652 15.06401988 86344","EPHEMERIS_TYPE":"0","NORAD_CAT_ID":"46765","MEAN_ELEMENT_THEORY":"SGP4","TIME_SYSTEM":"UTC","LAUNCH_DATE":"2020-10-24","PERIOD":"95.592","OBJECT_NAME":"STARLINK-1906","FILE":"3447521","TLE_LINE1":"1 46765U 20074AC  22135.63201555  .00000481  00000-0  51174-4 0  9996","MEAN_ANOMALY":"309.9652","REV_AT_EPOCH":"8634"}];
